start=new Date('2021-12-31T00:00:00.000Z').valueOf();
sats=[{"GP_ID":"192792441","MEAN_MOTION_DDOT":"0.0000000000000","ARG_OF_PERICENTER":"84.0913","NORAD_CAT_ID":"45374","EPOCH":"2021-12-30T19:15:27.861120","MEAN_MOTION":"15.06393710","COUNTRY_CODE":"US","CENTER_NAME":"EARTH","PERIOD":"95.593","TLE_LINE1":"1 45374U 20019Q   21364.80240580 -.00000968  00000-0 -46054-4 0  9996","TIME_SYSTEM":"UTC","DECAY_DATE":null,"APOAPSIS":"549.011","LAUNCH_DATE":"2020-03-18","FILE":"3255240","MEAN_ANOMALY":"276.0368","RCS_SIZE":"LARGE","REV_AT_EPOCH":"9914","PERIAPSIS":"545.454","MEAN_MOTION_DOT":"-0.00000968","BSTAR":"-0.00004605400000","SEMIMAJOR_AXIS":"6925.368","INCLINATION":"53.0529","CLASSIFICATION_TYPE":"U","MEAN_ELEMENT_THEORY":"SGP4","ECCENTRICITY":"0.00025680","EPHEMERIS_TYPE":"0","TLE_LINE2":"2 45374  53.0529 194.5529 0002568  84.0913 276.0368 15.06393710 99140","OBJECT_TYPE":"PAYLOAD","SITE":"AFETR","OBJECT_ID":"2020-019Q","OBJECT_NAME":"STARLINK-1300","ELEMENT_SET_NO":"999","REF_FRAME":"TEME","RA_OF_ASC_NODE":"194.5529"},{"REF_FRAME":"TEME","ELEMENT_SET_NO":"999","RA_OF_ASC_NODE":"194.7918","OBJECT_ID":"2020-019R","OBJECT_NAME":"STARLINK-1302","OBJECT_TYPE":"PAYLOAD","TLE_LINE2":"2 45375  53.0539 194.7918 0002356  80.7818 279.3438 15.06402867 99135","SITE":"AFETR","MEAN_ELEMENT_THEORY":"SGP4","ECCENTRICITY":"0.00023560","EPHEMERIS_TYPE":"0","SEMIMAJOR_AXIS":"6925.340","INCLINATION":"53.0539","CLASSIFICATION_TYPE":"U","RCS_SIZE":"LARGE","REV_AT_EPOCH":"9913","MEAN_MOTION_DOT":"0.00001126","PERIAPSIS":"545.573","BSTAR":"0.00009448200000","APOAPSIS":"548.836","LAUNCH_DATE":"2020-03-18","FILE":"3255240","MEAN_ANOMALY":"279.3438","TIME_SYSTEM":"UTC","TLE_LINE1":"1 45375U 20019R   21364.75079634  .00001126  00000-0  94482-4 0  9994","DECAY_DATE":null,"MEAN_MOTION":"15.06402867","COUNTRY_CODE":"US","CENTER_NAME":"EARTH","PERIOD":"95.592","MEAN_MOTION_DDOT":"0.0000000000000","GP_ID":"192793191","ARG_OF_PERICENTER":"80.7818","NORAD_CAT_ID":"45375","EPOCH":"2021-12-30T18:01:08.803776"},{"CLASSIFICATION_TYPE":"U","SEMIMAJOR_AXIS":"6925.370","INCLINATION":"53.0539","EPHEMERIS_TYPE":"0","MEAN_ELEMENT_THEORY":"SGP4","ECCENTRICITY":"0.00021450","TLE_LINE2":"2 45376  53.0539 194.1105 0002145  82.3010 277.8222 15.06392895 99151","OBJECT_TYPE":"PAYLOAD","SITE":"AFETR","RA_OF_ASC_NODE":"194.1105","ELEMENT_SET_NO":"999","REF_FRAME":"TEME","OBJECT_NAME":"STARLINK-1304","OBJECT_ID":"2020-019S","NORAD_CAT_ID":"45376","EPOCH":"2021-12-30T21:38:46.754592","MEAN_MOTION_DDOT":"0.0000000000000","GP_ID":"192791939","ARG_OF_PERICENTER":"82.3010","DECAY_DATE":null,"TLE_LINE1":"1 45376U 20019S   21364.90193003 -.00000373  00000-0 -61359-5 0  9992","TIME_SYSTEM":"UTC","MEAN_MOTION":"15.06392895","CENTER_NAME":"EARTH","COUNTRY_CODE":"US","PERIOD":"95.593","PERIAPSIS":"545.750","MEAN_MOTION_DOT":"-0.00000373","BSTAR":"-0.00000613590000","RCS_SIZE":"LARGE","REV_AT_EPOCH":"9915","FILE":"3255240","MEAN_ANOMALY":"277.8222","APOAPSIS":"548.721","LAUNCH_DATE":"2020-03-18"},{"EPHEMERIS_TYPE":"0","ECCENTRICITY":"0.00024050","MEAN_ELEMENT_THEORY":"SGP4","CLASSIFICATION_TYPE":"U","INCLINATION":"53.0527","SEMIMAJOR_AXIS":"6925.372","OBJECT_NAME":"STARLINK-1305","OBJECT_ID":"2020-019T","RA_OF_ASC_NODE":"193.9863","REF_FRAME":"TEME","ELEMENT_SET_NO":"999","SITE":"AFETR","OBJECT_TYPE":"PAYLOAD","TLE_LINE2":"2 45377  53.0527 193.9863 0002405  84.1735 275.9528 15.06392228 99169","COUNTRY_CODE":"US","CENTER_NAME":"EARTH","PERIOD":"95.593","MEAN_MOTION":"15.06392228","DECAY_DATE":null,"TIME_SYSTEM":"UTC","TLE_LINE1":"1 45377U 20019T   21364.92772853 -.00001064  00000-0 -52501-4 0  9997","EPOCH":"2021-12-30T22:15:55.744992","NORAD_CAT_ID":"45377","ARG_OF_PERICENTER":"84.1735","GP_ID":"192791690","MEAN_MOTION_DDOT":"0.0000000000000","MEAN_ANOMALY":"275.9528","FILE":"3255240","LAUNCH_DATE":"2020-03-18","APOAPSIS":"548.903","BSTAR":"-0.00005250100000","MEAN_MOTION_DOT":"-0.00001064","PERIAPSIS":"545.572","REV_AT_EPOCH":"9916","RCS_SIZE":"LARGE"},{"SITE":"AFETR","OBJECT_TYPE":"PAYLOAD","TLE_LINE2":"2 45378  53.0541 194.0472 0002330  83.4225 276.7029 15.06393357 99166","RA_OF_ASC_NODE":"194.0472","REF_FRAME":"TEME","ELEMENT_SET_NO":"999","OBJECT_NAME":"STARLINK-1310","OBJECT_ID":"2020-019U","CLASSIFICATION_TYPE":"U","INCLINATION":"53.0541","SEMIMAJOR_AXIS":"6925.369","EPHEMERIS_TYPE":"0","ECCENTRICITY":"0.00023300","MEAN_ELEMENT_THEORY":"SGP4","BSTAR":"-0.00004157600000","MEAN_MOTION_DOT":"-0.00000901","PERIAPSIS":"545.620","REV_AT_EPOCH":"9916","RCS_SIZE":"LARGE","MEAN_ANOMALY":"276.7029","FILE":"3255240","LAUNCH_DATE":"2020-03-18","APOAPSIS":"548.848","EPOCH":"2021-12-30T22:00:00.407232","NORAD_CAT_ID":"45378","ARG_OF_PERICENTER":"83.4225","MEAN_MOTION_DDOT":"0.0000000000000","GP_ID":"192792941","DECAY_DATE":null,"TLE_LINE1":"1 45378U 20019U   21364.91667138 -.00000901  00000-0 -41576-4 0  9995","TIME_SYSTEM":"UTC","COUNTRY_CODE":"US","PERIOD":"95.593","CENTER_NAME":"EARTH","MEAN_MOTION":"15.06393357"},{"SITE":"AFETR","TLE_LINE2":"2 45379  53.0529 194.3213 0002422  83.7438 276.3827 15.06396342 99158","OBJECT_TYPE":"PAYLOAD","OBJECT_NAME":"STARLINK-1319","OBJECT_ID":"2020-019V","RA_OF_ASC_NODE":"194.3213","ELEMENT_SET_NO":"999","REF_FRAME":"TEME","CLASSIFICATION_TYPE":"U","INCLINATION":"53.0529","SEMIMAJOR_AXIS":"6925.360","EPHEMERIS_TYPE":"0","ECCENTRICITY":"0.00024220","MEAN_ELEMENT_THEORY":"SGP4","MEAN_ANOMALY":"276.3827","FILE":"3255240","LAUNCH_DATE":"2020-03-18","APOAPSIS":"548.902","BSTAR":"-0.00002544000000","MEAN_MOTION_DOT":"-0.00000661","PERIAPSIS":"545.547","REV_AT_EPOCH":"9915","RCS_SIZE":"LARGE","EPOCH":"2021-12-30T20:29:46.385376","NORAD_CAT_ID":"45379","ARG_OF_PERICENTER":"83.7438","GP_ID":"192792692","MEAN_MOTION_DDOT":"0.0000000000000","CENTER_NAME":"EARTH","COUNTRY_CODE":"US","PERIOD":"95.592","MEAN_MOTION":"15.06396342","DECAY_DATE":null,"TLE_LINE1":"1 45379U 20019V   21364.85400909 -.00000661  00000-0 -25440-4 0  9995","TIME_SYSTEM":"UTC"},{"OBJECT_NAME":"STARLINK-1207","OBJECT_ID":"2020-019W","RA_OF_ASC_NODE":"174.3298","ELEMENT_SET_NO":"999","REF_FRAME":"TEME","OBJECT_TYPE":"PAYLOAD","TLE_LINE2":"2 45380  53.0527 174.3298 0001054 107.3973 252.7131 15.06396027 99422","SITE":"AFETR","EPHEMERIS_TYPE":"0","MEAN_ELEMENT_THEORY":"SGP4","ECCENTRICITY":"0.00010540","CLASSIFICATION_TYPE":"U","SEMIMAJOR_AXIS":"6925.361","INCLINATION":"53.0527","FILE":"3255240","MEAN_ANOMALY":"252.7131","APOAPSIS":"547.956","LAUNCH_DATE":"2020-03-18","MEAN_MOTION_DOT":"0.00000976","PERIAPSIS":"546.496","BSTAR":"0.00008443100000","RCS_SIZE":"LARGE","REV_AT_EPOCH":"9942","MEAN_MOTION":"15.06396027","PERIOD":"95.592","COUNTRY_CODE":"US","CENTER_NAME":"EARTH","DECAY_DATE":null,"TIME_SYSTEM":"UTC","TLE_LINE1":"1 45380U 20019W   21364.85216383  .00000976  00000-0  84431-4 0  9990","NORAD_CAT_ID":"45380","EPOCH":"2021-12-30T20:27:06.954912","GP_ID":"192791440","MEAN_MOTION_DDOT":"0.0000000000000","ARG_OF_PERICENTER":"107.3973"},{"SITE":"AFETR","TLE_LINE2":"2 45381  53.0515 174.2721 0002572  90.4349 269.6935 15.06395854 99421","OBJECT_TYPE":"PAYLOAD","OBJECT_ID":"2020-019X","OBJECT_NAME":"STARLINK-1258","REF_FRAME":"TEME","ELEMENT_SET_NO":"999","RA_OF_ASC_NODE":"174.2721","INCLINATION":"53.0515","SEMIMAJOR_AXIS":"6925.361","CLASSIFICATION_TYPE":"U","ECCENTRICITY":"0.00025720","MEAN_ELEMENT_THEORY":"SGP4","EPHEMERIS_TYPE":"0","LAUNCH_DATE":"2020-03-18","APOAPSIS":"549.007","MEAN_ANOMALY":"269.6935","FILE":"3255240","REV_AT_EPOCH":"9942","RCS_SIZE":"LARGE","BSTAR":"0.00013092000000","MEAN_MOTION_DOT":"0.00001668","PERIAPSIS":"545.445","ARG_OF_PERICENTER":"90.4349","MEAN_MOTION_DDOT":"0.0000000000000","GP_ID":"192792190","EPOCH":"2021-12-30T20:43:02.792064","NORAD_CAT_ID":"45381","CENTER_NAME":"EARTH","COUNTRY_CODE":"US","PERIOD":"95.592","MEAN_MOTION":"15.06395854","TIME_SYSTEM":"UTC","TLE_LINE1":"1 45381U 20019X   21364.86322676  .00001668  00000-0  13092-3 0  9998","DECAY_DATE":null},{"SEMIMAJOR_AXIS":"6925.319","INCLINATION":"53.0544","CLASSIFICATION_TYPE":"U","MEAN_ELEMENT_THEORY":"SGP4","ECCENTRICITY":"0.00029050","EPHEMERIS_TYPE":"0","TLE_LINE2":"2 45382  53.0544 174.0886 0002905  91.8266 268.3055 15.06409625 99259","OBJECT_TYPE":"PAYLOAD","SITE":"AFETR","OBJECT_ID":"2020-019Y","OBJECT_NAME":"STARLINK-1264","ELEMENT_SET_NO":"999","REF_FRAME":"TEME","RA_OF_ASC_NODE":"174.0886","MEAN_MOTION_DDOT":"0.0000000000000","GP_ID":"192792442","ARG_OF_PERICENTER":"91.8266","NORAD_CAT_ID":"45382","EPOCH":"2021-12-30T21:46:44.375520","MEAN_MOTION":"15.06409625","COUNTRY_CODE":"US","PERIOD":"95.592","CENTER_NAME":"EARTH","TLE_LINE1":"1 45382U 20019Y   21364.90745805  .00001042  00000-0  88864-4 0  9993","TIME_SYSTEM":"UTC","DECAY_DATE":null,"APOAPSIS":"549.196","LAUNCH_DATE":"2020-03-18","FILE":"3255240","MEAN_ANOMALY":"268.3055","RCS_SIZE":"LARGE","REV_AT_EPOCH":"9925","PERIAPSIS":"545.172","MEAN_MOTION_DOT":"0.00001042","BSTAR":"0.00008886400000"},{"CLASSIFICATION_TYPE":"U","SEMIMAJOR_AXIS":"6925.374","INCLINATION":"53.0529","EPHEMERIS_TYPE":"0","MEAN_ELEMENT_THEORY":"SGP4","ECCENTRICITY":"0.00024270","OBJECT_TYPE":"PAYLOAD","TLE_LINE2":"2 45383  53.0529 174.3016 0002427  93.1597 266.9670 15.06391644 99429","SITE":"AFETR","RA_OF_ASC_NODE":"174.3016","ELEMENT_SET_NO":"999","REF_FRAME":"TEME","OBJECT_NAME":"STARLINK-1266","OBJECT_ID":"2020-019Z","NORAD_CAT_ID":"45383","EPOCH":"2021-12-30T20:32:25.473696","MEAN_MOTION_DDOT":"0.0000000000000","GP_ID":"192793192","ARG_OF_PERICENTER":"93.1597","DECAY_DATE":null,"TIME_SYSTEM":"UTC","TLE_LINE1":"1 45383U 20019Z   21364.85585039  .00000889  00000-0  78612-4 0  9997","MEAN_MOTION":"15.06391644","COUNTRY_CODE":"US","CENTER_NAME":"EARTH","PERIOD":"95.593","MEAN_MOTION_DOT":"0.00000889","PERIAPSIS":"545.558","BSTAR":"0.00007861200000","RCS_SIZE":"LARGE","REV_AT_EPOCH":"9942","FILE":"3255240","MEAN_ANOMALY":"266.9670","APOAPSIS":"548.920","LAUNCH_DATE":"2020-03-18"}];
